NOAA 2 (ITOS-D)
1 06235U 72082A   25271.92290198 -.00000028  00000-0  11516-3 0  9990
2 06235 102.0236 282.4985 0003890 312.0403 107.9077 12.53205089422221
SOLRAD-7B
1 01291U 65016D   25271.88788366  .00000093  00000-0  10775-3 0  9997
2 01291  70.0785  71.7742 0018311 105.8300 254.4826 13.94929212 80260
OSCAR-7 (AO-7)
1 07530U 74089B   25271.88615216 -.00000040  00000-0  43819-4 0  9991
2 07530 101.9984 277.3522 0011918 270.2653 158.3104 12.53691884327777
UOSAT-2 (UO-11)
1 14781U 84021B   25271.91248995  .00003764  00000-0  39835-3 0  9991
2 14781  97.7684 236.1737 0007062 340.5324  19.5623 14.89740342218211
FLTSATCOM-7 (USA-20)
1 17181U 86096A   25271.66360034 -.00000054  00000-0  00000-0 0  9992
2 17181  12.9145 341.7213 0040483 319.8655  40.6444  0.98926398149380
FLTSATCOM-8 (USA-46)
1 20253U 89077A   25270.59907617 -.00000360  00000-0  00000-0 0  9993
2 20253  12.4956 352.7266 0004538 218.1831 137.1549  1.00269788257922
OSCAR 16 (PACSAT)
1 20439U 90005D   25271.07995082  .00000279  00000-0  11709-3 0  9998
2 20439  98.8840 295.2091 0009549 281.6357 145.7521 14.33814748864370
LUSAT (LO-19)
1 20442U 90005G   25271.88856603  .00000320  00000-0  13128-3 0  9990
2 20442  98.9006 281.3120 0010585 250.6068 109.3972 14.33997561864949
UFO 2 (USA 95)
1 22787U 93056A   25270.85302779  .00000132  00000-0  00000-0 0  9992
2 22787  11.8050   4.9534 0004519 229.9161 107.7722  1.00273688115915
EYESAT-1 (AO-27)
1 22825U 93061C   25271.75612527  .00000268  00000-0  11926-3 0  9998
2 22825  98.7250 333.8058 0009083 141.9246 218.2580 14.30835192669619
ITAMSAT (IO-26) 
1 22826U 93061D   25271.74275214  .00000300  00000-0  13025-3 0  9995
2 22826  98.7198 333.6849 0009816 127.4263 232.7814 14.31252151669912
UFO 3 (USA 104)
1 23132U 94035A   25265.95721433 -.00000033  00000-0  00000+0 0  9992
2 23132  12.2483   7.2882 0005271 219.3733 119.9339  1.00248980129013
RADIO ROSTO (RS-15)
1 23439U 94085A   25271.83779181 -.00000043  00000-0 -29984-4 0  9993
2 23439  64.8215   5.8821 0147550  52.9466 308.4848 11.27581366266433
UFO 4 (USA 108)
1 23467U 95003A   25271.56024698 -.00000014  00000-0  00000-0 0  9992
2 23467   9.6897  14.0614 0004076 178.7856 188.7858  1.00274930112339
UFO 7 (USA 127)
1 23967U 96042A   25271.64020024 -.00000179  00000-0  00000-0 0  9991
2 23967  10.8640  18.4401 0006829 135.3646  62.1230  1.00273380106868
JAS-2 (FO-29)
1 24278U 96046B   25271.65620743  .00000044  00000-0  78349-4 0  9991
2 24278  98.5559 150.8426 0350779  54.8497 308.4982 13.53254990437795
UFO 8 (USA 138)
1 25258U 98016A   25271.67062036 -.00000329  00000-0  00000-0 0  9998
2 25258  10.8119  24.2800 0005476 232.9342 123.1673  1.00336303101236
TECHSAT-1B (GO-32)
1 25397U 98043D   25271.89443412  .00000230  00000-0  11981-3 0  9990
2 25397  98.9837 253.4032 0000419 203.9051 156.2107 14.24344290414133
ISS (ZARYA)
1 25544U 98067A   25271.85554874  .00016796  00000-0  30713-3 0  9999
2 25544  51.6321 153.2360 0001168 172.7417 187.3589 15.49485331531244
UFO 10 (USA 146)
1 25967U 99063A   25270.64093637 -.00000182  00000-0  00000-0 0  9992
2 25967   9.7947  28.5372 0005493 195.5965 350.3327  1.00270189 94717
PCSAT (NO-44)
1 26931U 01043C   25271.92484747  .00000471  00000-0  20693-3 0  9996
2 26931  67.0511 199.9419 0007104 274.4881  85.5409 14.31790174253043
PROBA-1
1 26958U 01049B   25271.95487833  .00005038  00000-0  34005-3 0  9999
2 26958  97.9567 266.7075 0055232 285.9879  73.5267 15.05855976304281
SAUDISAT-1C (SO-50)
1 27607U 02058C   25271.91210732  .00004154  00000-0  52034-3 0  9990
2 27607  64.5535 216.7912 0067298 310.7735  48.7542 14.81973429225724
CUTE-1 (CO-55)
1 27844U 03031E   25271.90575362  .00000693  00000-0  32046-3 0  9992
2 27844  98.6789 278.7623 0008807 219.3562 140.6977 14.24083299154488
CUBESAT XI-IV (CO-57)
1 27848U 03031J   25271.48481153  .00000604  00000-0  28539-3 0  9997
2 27848  98.6819 278.2678 0008495 240.1012 119.9323 14.23405204154146
MOZHAYETS-4 (RS-22)
1 27939U 03042A   25271.85558753  .00002655  00000-0  42473-3 0  9993
2 27939  98.3378  84.0840 0011824  22.9001 108.7333 14.72639093177075
UFO 11 (USA 174)
1 28117U 03057A   25271.87372250 -.00000098  00000-0  00000-0 0  9993
2 28117   8.6917  35.0161 0004192 171.6318 191.4002  1.00271622 79836
CUBESAT XI-V (CO-58)
1 28895U 05043F   25271.92364053  .00004036  00000-0  65895-3 0  9992
2 28895  98.2657  57.7923 0013576 317.3495  42.6656 14.71419304 63314
CAPE-1
1 31130U 07012P   25271.88646952  .00002728  00000-0  50640-3 0  9990
2 31130  98.4110 235.1009 0085261 165.7210 194.6430 14.63754448980108
CUTE-1.7+APD II (CO-65)
1 32785U 08021C   25271.90845340  .00011553  00000-0  80321-3 0  9998
2 32785  97.7992 244.0520 0009291 181.3225 178.7979 15.05641650945829
SEEDS-II (CO-66)
1 32791U 08021J   25271.89579866  .00029529  00000-0  13047-2 0  9992
2 32791  97.7391 254.6912 0005756 121.5753 238.6045 15.21661502947407
YUBILEINY (RS-30)
1 32953U 08025A   25271.94584652  .00000028  00000-0  12910-3 0  9993
2 32953  82.5054 157.9411 0019095 159.3961 200.7893 12.43168535787238
KKS-1 (KISEKI)
1 33499U 09002H   25271.87629577  .00003381  00000-0  43286-3 0  9998
2 33499  98.1117 185.4291 0009483  62.0145 298.2026 14.81984510897474
SWISSCUBE
1 35932U 09051B   25271.68148458  .00002657  00000-0  54424-3 0  9990
2 35932  98.4147 169.9331 0006008 316.6460  43.4267 14.61611362850942
BEESAT
1 35933U 09051C   25271.70173250  .00002231  00000-0  46486-3 0  9999
2 35933  98.4079 170.1070 0004792 334.7052  25.3913 14.60983625850992
ITUPSAT-1
1 35935U 09051E   25271.26229391  .00002079  00000-0  44549-3 0  9998
2 35935  98.4170 169.1079 0007210 341.5290  18.5647 14.59761728850513
PROBA-2
1 36037U 09059B   25271.46189451  .00000548  00000-0  13864-3 0  9999
2 36037  98.2409  93.5404 0013510  14.2883 345.8694 14.54622530843471
XIWANG-1 (HOPE-1)
1 36122U 09072B   25271.88204510 -.00000006  00000-0  98703-4 0  9995
2 36122 100.3621 225.3594 0008070 108.6636 251.5354 13.16428793758621
EWS-G2 (GOES-15)
1 36411U 10008A   25271.95453642  .00000042  00000-0  00000-0 0  9995
2 36411   0.6144  85.4862 0005163 138.7920 188.6891  1.00272993 57017
TISAT-1
1 36799U 10035E   25271.73953880  .00029393  00000-0  13807-2 0  9990
2 36799  98.0517 192.8841 0005533  82.8001 277.3861 15.19558562827833
HORYU-2
1 38340U 12025D   25271.86561628  .00008559  00000-0  92698-3 0  9991
2 38340  98.1885  30.0964 0007823 320.4120  39.6523 14.88469641709817
AAUSAT-3
1 39087U 13009B   25271.44923909  .00001575  00000-0  51969-3 0  9998
2 39087  98.3680  96.3222 0010475 279.9764  80.0242 14.39405000659516
STRAND-1
1 39090U 13009E   25271.46724079  .00000744  00000-0  26591-3 0  9991
2 39090  98.3856  93.2845 0007690 297.3318  62.7086 14.36904004659479
CUBEBUG-1 (CAPITAN BETO)
1 39153U 13018D   25271.87376297  .00009076  00000-0  84230-3 0  9992
2 39153  98.1350  56.1674 0011390 293.3454  66.6567 14.94611363671998
PROBA-V
1 39159U 13021A   25271.93468008  .00000199  00000-0  10554-3 0  9996
2 39159  98.3318 258.8777 0004341 162.2848 197.8483 14.23517621643946
ZACUBE-1 (TSHEPISOSAT)
1 39417U 13066B   25271.86913509  .00012351  00000-0  10359-2 0  9990
2 39417  97.7912 228.4275 0044240  41.5020 318.9547 14.97744864641560
TRITON-1
1 39427U 13066M   25272.00839587  .00008226  00000-0  10223-2 0  9997
2 39427  97.8275 182.9509 0093661   5.7645 354.4621 14.79718650635435
DELFI-N3XT
1 39428U 13066N   25271.71068369  .00018205  00000-0  17756-2 0  9993
2 39428  97.8283 188.1792 0082322 355.7399   4.3108 14.89942208635613
GOMX-1
1 39430U 13066Q   25271.94190693  .00004407  00000-0  68151-3 0  9992
2 39430  97.6700 123.7373 0130941 195.2708 164.4530 14.68084479631561
HUMSAT-D
1 39433U 13066T   25271.89419995  .00088525  00000-0  19369-2 0  9997
2 39433  97.5065 270.3915 0012505  84.5933 275.6741 15.43736372646197
VELOX-PII
1 39438U 13066Y   25271.42590671  .00006258  00000-0  62445-3 0  9999
2 39438  97.8392 218.4478 0056868 128.1689 232.4672 14.90669872638802
CUBEBUG-2 (LO-74)
1 39440U 13066AA  25271.72873147  .00008409  00000-0  82991-3 0  9995
2 39440  97.8574 215.6188 0061182 171.3292 188.8999 14.90815818637997
FUNCUBE-1 (AO-73)
1 39444U 13066AE  25271.85970465  .00019257  00000-0  13706-2 0  9994
2 39444  97.7932 234.3709 0041143  13.4459 346.7852 15.03982060640302
UWE-3
1 39446U 13066AG  25271.76690052  .00008902  00000-0  81936-3 0  9993
2 39446  97.8351 222.1908 0054029 109.2066 251.5011 14.93851134638505
UNISAT-6
1 40012U 14033C   25271.88938202  .00008203  00000-0  92721-3 0  9992
2 40012  97.7564  65.1177 0046654 207.9191 151.9521 14.85944413607323
DUCHIFAT-1
1 40021U 14033M   25271.58545429  .00043369  00000-0  13253-2 0  9998
2 40021  98.0909 295.9404 0005419 291.9201  68.1463 15.33740447615301
FUNCUBE-3 (EO-79)
1 40025U 14033R   25271.90849512  .00018619  00000-0  10747-2 0  9993
2 40025  98.0944 260.8848 0011477  47.5519 312.6678 15.12341726613458
SMAP
1 40376U 15003A   25271.88299952  .00001171  00000-0  23596-3 0  9996
2 40376  98.1315 277.6668 0001322 107.2950 252.8397 14.63332859569407
LILACSAT-2
1 40908U 15049K   25271.97222247  .00024178  00000-0  57402-3 0  9995
2 40908  97.5018 295.1796 0010579 115.6155 244.6186 15.41638313555379
LAPAN-A2 (IO-86)
1 40931U 15052B   25151.18580175  .00001241  00000-0  78118-4 0  9996
2 40931   6.0006  24.0987 0012733 338.8432  21.1169 14.78805930523159
LQSAT
1 40958U 15057A   25271.96518780  .00002086  00000-0  30735-3 0  9992
2 40958  97.6604 273.5688 0018278  44.4741 315.7933 14.76256330536764
PRATHAM
1 41783U 16059A   25271.93180156  .00001876  00000-0  34379-3 0  9995
2 41783  97.8274 275.5060 0030908 333.1784  26.7821 14.66614693481214
ALSAT-1N
1 41789U 16059G   25271.96543478  .00002254  00000-0  39427-3 0  9994
2 41789  97.8057 282.0745 0024935 305.1875  54.6996 14.68609240481650
CAS-2T & KS-1Q
1 41847U 16066G   25271.78635199  .00003445  00000-0  49623-3 0  9991
2 41847  98.4103 345.2537 0344694 201.7953 156.8268 14.43778078467065
